STARLINK-1434           
1 45712U 20035BH  26068.24137979  .00054112  00000+0  20295-2 0  9995
2 45712  53.0547  22.1128 0005343  88.0400 272.1210 15.26724568319325
STARLINK-32891          
1 62927U 25027W   26068.52048685  .00031825  00000+0  11617-2 0  9998
2 62927  42.9981 130.0619 0001362 286.2406  73.8296 15.27561238 61632
